{"type": "FeatureCollection", "features": [ {"type": "Feature", "properties": {"norad_id": 66563, "name": "STARLINK-35437", "group": "last-30-days", "lat": -31.567621496874615, "lon": 126.62996665006678, "alt_km": 361.7588324017852, "timestamp": "2025-12-04T19:33:58.449248+00:00", "meta": {"OBJECT_NAME": "STARLINK-35437", "OBJECT_ID": "2025-268G", "EPOCH": "2025-12-04T08:00:01.999872", "MEAN_MOTION": 15.71623802, "ECCENTRICITY": 0.0001554, "INCLINATION": 42.9992, "RA_OF_ASC_NODE": 170.7883, "ARG_OF_PERICENTER": 274.3827, "MEAN_ANOMALY": 187.4026, "EPHEMERIS_TYPE": 0, "CLASSIFICATION_TYPE": "U", "NORAD_CAT_ID": 66563, "ELEMENT_SET_NO": 999, "REV_AT_EPOCH": 331, "BSTAR": -0.016402885, "MEAN_MOTION_DOT": -0.01928703, "MEAN_MOTION_DDOT": 0}, "tle": {"line1": "1 66563U 25268G   25338.33335648 -.01928703  00000+0 -16403-1 0  9991", "line2": "2 66563  42.9992 170.7883 0001554 274.3827 187.4026 15.71623802  3315"}}, "geometry": {"type": "Point", "coordinates": [126.62996665006678, -31.567621496874615]}}, {"type": "Feature", "properties": {"norad_id": 66564, "name": "STARLINK-35358", "group": "last-30-days", "lat": -30.57090162963976, "lon": 128.53697165711344, "alt_km": 361.79964547749114, "timestamp": "2025-12-04T19:33:58.449256+00:00", "meta": {"OBJECT_NAME": "STARLINK-35358", "OBJECT_ID": "2025-268H", "EPOCH": "2025-12-04T08:00:01.999872", "MEAN_MOTION": 15.71622858, "ECCENTRICITY": 0.00015225, "INCLINATION": 42.9991, "RA_OF_ASC_NODE": 170.7837, "ARG_OF_PERICENTER": 271.2077, "MEAN_ANOMALY": 192.4962, "EPHEMERIS_TYPE": 0, "CLASSIFICATION_TYPE": "U", "NORAD_CAT_ID": 66564, "ELEMENT_SET_NO": 999, "REV_AT_EPOCH": 326, "BSTAR": -0.016398559, "MEAN_MOTION_DOT": -0.01928159, "MEAN_MOTION_DDOT": 0}, "tle": {"line1": "1 66564U 25268H   25338.33335648 -.01928159  00000+0 -16399-1 0  9991", "line2": "2 66564  42.9991 170.7837 0001522 271.2077 192.4962 15.71622858  3261"}}, "geometry": {"type": "Point", "coordinates": [128.53697165711344, -30.57090162963976]}}, {"type": "Feature", "properties": {"norad_id": 66565, "name": "STARLINK-35893", "group": "last-30-days", "lat": -29.54728352708798, "lon": 130.4035190585195, "alt_km": 361.73249715869133, "timestamp": "2025-12-04T19:33:58.449265+00:00", "meta": {"OBJECT_NAME": "STARLINK-35893", "OBJECT_ID": "2025-268J", "EPOCH": "2025-12-04T08:00:01.999872", "MEAN_MOTION": 15.71617323, "ECCENTRICITY": 0.00016089, "INCLINATION": 42.9991, "RA_OF_ASC_NODE": 170.7787, "ARG_OF_PERICENTER": 269.9405, "MEAN_ANOMALY": 195.6829, "EPHEMERIS_TYPE": 0, "CLASSIFICATION_TYPE": "U", "NORAD_CAT_ID": 66565, "ELEMENT_SET_NO": 999, "REV_AT_EPOCH": 331, "BSTAR": -0.016337765, "MEAN_MOTION_DOT": -0.01921486, "MEAN_MOTION_DDOT": 0}, "tle": {"line1": "1 66565U 25268J   25338.33335648 -.01921486  00000+0 -16338-1 0  9991", "line2": "2 66565  42.9991 170.7787 0001608 269.9405 195.6829 15.71617323  3314"}}, "geometry": {"type": "Point", "coordinates": [130.4035190585195, -29.54728352708798]}}, {"type": "Feature", "properties": {"norad_id": 66566, "name": "STARLINK-35871", "group": "last-30-days", "lat": -28.498515676541903, "lon": 132.23158881852606, "alt_km": 361.7015478971016, "timestamp": "2025-12-04T19:33:58.449274+00:00", "meta": {"OBJECT_NAME": "STARLINK-35871", "OBJECT_ID": "2025-268K", "EPOCH": "2025-12-04T08:00:01.999872", "MEAN_MOTION": 15.71615747, "ECCENTRICITY": 0.00016104, "INCLINATION": 42.9992, "RA_OF_ASC_NODE": 170.774, "ARG_OF_PERICENTER": 269.597, "MEAN_ANOMALY": 197.9445, "EPHEMERIS_TYPE": 0, "CLASSIFICATION_TYPE": "U", "NORAD_CAT_ID": 66566, "ELEMENT_SET_NO": 999, "REV_AT_EPOCH": 331, "BSTAR": -0.016326805, "MEAN_MOTION_DOT": -0.0192023, "MEAN_MOTION_DDOT": 0}, "tle": {"line1": "1 66566U 25268K   25338.33335648 -.01920230  00000+0 -16327-1 0  9996", "line2": "2 66566  42.9992 170.7740 0001610 269.5970 197.9445 15.71615747  3318"}}, "geometry": {"type": "Point", "coordinates": [132.23158881852606, -28.498515676541903]}}, {"type": "Feature", "properties": {"norad_id": 66567, "name": "STARLINK-35825", "group": "last-30-days", "lat": -27.426001319852627, "lon": 134.02241088280687, "alt_km": 361.70696990644774, "timestamp": "2025-12-04T19:33:58.449284+00:00", "meta": {"OBJECT_NAME": "STARLINK-35825", "OBJECT_ID": "2025-268L", "EPOCH": "2025-12-04T08:00:01.999872", "MEAN_MOTION": 15.71622616, "ECCENTRICITY": 0.00014566, "INCLINATION": 42.9991, "RA_OF_ASC_NODE": 170.7694, "ARG_OF_PERICENTER": 271.818, "MEAN_ANOMALY": 197.6374, "EPHEMERIS_TYPE": 0, "CLASSIFICATION_TYPE": "U", "NORAD_CAT_ID": 66567, "ELEMENT_SET_NO": 999, "REV_AT_EPOCH": 331, "BSTAR": -0.016400412, "MEAN_MOTION_DOT": -0.01928283, "MEAN_MOTION_DDOT": 0}, "tle": {"line1": "1 66567U 25268L   25338.33335648 -.01928283  00000+0 -16400-1 0  9995", "line2": "2 66567  42.9991 170.7694 0001456 271.8180 197.6374 15.71622616  3314"}}, "geometry": {"type": "Point", "coordinates": [134.02241088280687, -27.426001319852627]}}, {"type": "Feature", "properties": {"norad_id": 66568, "name": "STARLINK-35803", "group": "last-30-days", "lat": -26.33141489098769, "lon": 135.7770137508769, "alt_km": 361.67254321281325, "timestamp": "2025-12-04T19:33:58.449293+00:00", "meta": {"OBJECT_NAME": "STARLINK-35803", "OBJECT_ID": "2025-268M", "EPOCH": "2025-12-04T08:00:01.999872", "MEAN_MOTION": 15.71622741, "ECCENTRICITY": 0.00013296, "INCLINATION": 42.9991, "RA_OF_ASC_NODE": 170.7641, "ARG_OF_PERICENTER": 274.7992, "MEAN_ANOMALY": 196.5724, "EPHEMERIS_TYPE": 0, "CLASSIFICATION_TYPE": "U", "NORAD_CAT_ID": 66568, "ELEMENT_SET_NO": 999, "REV_AT_EPOCH": 331, "BSTAR": -0.016394839, "MEAN_MOTION_DOT": -0.01927614, "MEAN_MOTION_DDOT": 0}, "tle": {"line1": "1 66568U 25268M   25338.33335648 -.01927614  00000+0 -16395-1 0  9996", "line2": "2 66568  42.9991 170.7641 0001329 274.7992 196.5724 15.71622741  3315"}}, "geometry": {"type": "Point", "coordinates": [135.7770137508769, -26.33141489098769]}}, {"type": "Feature", "properties": {"norad_id": 66569, "name": "STARLINK-35835", "group": "last-30-days", "lat": -25.21326504976782, "lon": 137.50280477933597, "alt_km": 361.6670352911351, "timestamp": "2025-12-04T19:33:58.449303+00:00", "meta": {"OBJECT_NAME": "STARLINK-35835", "OBJECT_ID": "2025-268N", "EPOCH": "2025-12-04T08:00:01.999872", "MEAN_MOTION": 15.71624075, "ECCENTRICITY": 0.00014203, "INCLINATION": 42.9991, "RA_OF_ASC_NODE": 170.7595, "ARG_OF_PERICENTER": 269.9788, "MEAN_ANOMALY": 203.3098, "EPHEMERIS_TYPE": 0, "CLASSIFICATION_TYPE": "U", "NORAD_CAT_ID": 66569, "ELEMENT_SET_NO": 999, "REV_AT_EPOCH": 331, "BSTAR": -0.016414934, "MEAN_MOTION_DOT": -0.01929874, "MEAN_MOTION_DDOT": 0}, "tle": {"line1": "1 66569U 25268N   25338.33335648 -.01929874  00000+0 -16415-1 0  9990", "line2": "2 66569  42.9991 170.7595 0001420 269.9788 203.3098 15.71624075  3318"}}, "geometry": {"type": "Point", "coordinates": [137.50280477933597, -25.21326504976782]}}, {"type": "Feature", "properties": {"norad_id": 66570, "name": "STARLINK-35834", "group": "last-30-days", "lat": -24.076903703795864, "lon": 139.1938486140467, "alt_km": 361.47263292502794, "timestamp": "2025-12-04T19:33:58.449311+00:00", "meta": {"OBJECT_NAME": "STARLINK-35834", "OBJECT_ID": "2025-268P", "EPOCH": "2025-12-04T08:00:01.999872", "MEAN_MOTION": 15.71608426, "ECCENTRICITY": 0.00015451, "INCLINATION": 42.9991, "RA_OF_ASC_NODE": 170.7542, "ARG_OF_PERICENTER": 273.4322, "MEAN_ANOMALY": 201.7849, "EPHEMERIS_TYPE": 0, "CLASSIFICATION_TYPE": "U", "NORAD_CAT_ID": 66570, "ELEMENT_SET_NO": 999, "REV_AT_EPOCH": 331, "BSTAR": -0.016280299, "MEAN_MOTION_DOT": -0.01914796, "MEAN_MOTION_DDOT": 0}, "tle": {"line1": "1 66570U 25268P   25338.33335648 -.01914796  00000+0 -16280-1 0  9999", "line2": "2 66570  42.9991 170.7542 0001545 273.4322 201.7849 15.71608426  3312"}}, "geometry": {"type": "Point", "coordinates": [139.1938486140467, -24.076903703795864]}}, {"type": "Feature", "properties": {"norad_id": 66571, "name": "STARLINK-35836", "group": "last-30-days", "lat": -22.92269789588385, "lon": 140.85493950304544, "alt_km": 361.3953173826694, "timestamp": "2025-12-04T19:33:58.449320+00:00", "meta": {"OBJECT_NAME": "STARLINK-35836", "OBJECT_ID": "2025-268Q", "EPOCH": "2025-12-04T08:00:01.999872", "MEAN_MOTION": 15.71621419, "ECCENTRICITY": 0.00014902, "INCLINATION": 42.999, "RA_OF_ASC_NODE": 170.7499, "ARG_OF_PERICENTER": 275.7569, "MEAN_ANOMALY": 201.3659, "EPHEMERIS_TYPE": 0, "CLASSIFICATION_TYPE": "U", "NORAD_CAT_ID": 66571, "ELEMENT_SET_NO": 999, "REV_AT_EPOCH": 331, "BSTAR": -0.016383497, "MEAN_MOTION_DOT": -0.01926459, "MEAN_MOTION_DDOT": 0}, "tle": {"line1": "1 66571U 25268Q   25338.33335648 -.01926459  00000+0 -16383-1 0  9993", "line2": "2 66571  42.9990 170.7499 0001490 275.7569 201.3659 15.71621419  3312"}}, "geometry": {"type": "Point", "coordinates": [140.85493950304544, -22.92269789588385]}}, {"type": "Feature", "properties": {"norad_id": 66572, "name": "STARLINK-35870", "group": "last-30-days", "lat": -21.74877766058442, "lon": 142.49128877337796, "alt_km": 361.4844462144292, "timestamp": "2025-12-04T19:33:58.449330+00:00", "meta": {"OBJECT_NAME": "STARLINK-35870", "OBJECT_ID": "2025-268R", "EPOCH": "2025-12-04T08:00:01.999872", "MEAN_MOTION": 15.71610464, "ECCENTRICITY": 0.00015496, "INCLINATION": 42.9989, "RA_OF_ASC_NODE": 170.7455, "ARG_OF_PERICENTER": 267.8851, "MEAN_ANOMALY": 211.1654, "EPHEMERIS_TYPE": 0, "CLASSIFICATION_TYPE": "U", "NORAD_CAT_ID": 66572, "ELEMENT_SET_NO": 999, "REV_AT_EPOCH": 331, "BSTAR": -0.016309866, "MEAN_MOTION_DOT": -0.01918032, "MEAN_MOTION_DDOT": 0}, "tle": {"line1": "1 66572U 25268R   25338.33335648 -.01918032  00000+0 -16310-1 0  9992", "line2": "2 66572  42.9989 170.7455 0001549 267.8851 211.1654 15.71610464  3316"}}, "geometry": {"type": "Point", "coordinates": [142.49128877337796, -21.74877766058442]}}]}